start=new Date('2023-02-09T00:00:00.000Z').valueOf();
sats=[{"MEAN_ANOMALY":"259.6124","EPOCH":"2023-02-08T08:33:48.914496","EPHEMERIS_TYPE":"0","TIME_SYSTEM":"UTC","MEAN_MOTION":"15.06402879","BSTAR":"0.00003466300000","SEMIMAJOR_AXIS":"6925.340","OBJECT_ID":"2021-009AM","CENTER_NAME":"EARTH","TLE_LINE2":"2 47583  53.0550  33.4410 0001279 100.5009 259.6124 15.06402879111189","RCS_SIZE":"LARGE","APOAPSIS":"548.090","MEAN_ELEMENT_THEORY":"SGP4","OBJECT_NAME":"STARLINK-1987","MEAN_MOTION_DOT":"0.00000235","SITE":"AFETR","ECCENTRICITY":"0.00012790","PERIAPSIS":"546.319","CLASSIFICATION_TYPE":"U","NORAD_CAT_ID":"47583","PERIOD":"95.592","LAUNCH_DATE":"2021-02-04","OBJECT_TYPE":"PAYLOAD","REF_FRAME":"TEME","COUNTRY_CODE":"US","RA_OF_ASC_NODE":"33.4410","ELEMENT_SET_NO":"999","REV_AT_EPOCH":"11118","FILE":"3780324","GP_ID":"224822026","INCLINATION":"53.0550","TLE_LINE1":"1 47583U 21009AM  23039.35681614  .00000235  00000-0  34663-4 0  9996","MEAN_MOTION_DDOT":"0.0000000000000","ARG_OF_PERICENTER":"100.5009","DECAY_DATE":null},{"RA_OF_ASC_NODE":"30.9324","GP_ID":"224857338","REV_AT_EPOCH":"11126","FILE":"3780893","ELEMENT_SET_NO":"999","REF_FRAME":"TEME","OBJECT_TYPE":"PAYLOAD","COUNTRY_CODE":"US","TLE_LINE1":"1 47585U 21009AP  23039.91340072 -.00004080  00000-0 -25526-3 0  9991","INCLINATION":"53.0535","DECAY_DATE":null,"MEAN_MOTION_DDOT":"0.0000000000000","ARG_OF_PERICENTER":"79.8644","SEMIMAJOR_AXIS":"6925.393","OBJECT_ID":"2021-009AP","CENTER_NAME":"EARTH","BSTAR":"-0.00025526000000","MEAN_MOTION":"15.06385561","TIME_SYSTEM":"UTC","APOAPSIS":"548.518","MEAN_ELEMENT_THEORY":"SGP4","RCS_SIZE":"LARGE","TLE_LINE2":"2 47585  53.0535  30.9324 0001819  79.8644 280.2550 15.06385561111263","MEAN_ANOMALY":"280.2550","EPHEMERIS_TYPE":"0","EPOCH":"2023-02-08T21:55:17.822208","CLASSIFICATION_TYPE":"U","PERIAPSIS":"545.998","ECCENTRICITY":"0.00018190","SITE":"AFETR","LAUNCH_DATE":"2021-02-04","PERIOD":"95.593","NORAD_CAT_ID":"47585","OBJECT_NAME":"STARLINK-1989","MEAN_MOTION_DOT":"-0.00004080"},{"EPHEMERIS_TYPE":"0","EPOCH":"2023-02-08T11:58:09.268896","MEAN_ANOMALY":"267.6097","RCS_SIZE":"LARGE","MEAN_ELEMENT_THEORY":"SGP4","APOAPSIS":"548.141","TLE_LINE2":"2 47586  53.0534  52.8010 0001399  92.5052 267.6097 15.06413640110923","BSTAR":"0.00023158000000","CENTER_NAME":"EARTH","SEMIMAJOR_AXIS":"6925.307","OBJECT_ID":"2021-009AQ","TIME_SYSTEM":"UTC","MEAN_MOTION":"15.06413640","MEAN_MOTION_DOT":"0.00003171","OBJECT_NAME":"STARLINK-1990","LAUNCH_DATE":"2021-02-04","NORAD_CAT_ID":"47586","PERIOD":"95.591","PERIAPSIS":"546.203","CLASSIFICATION_TYPE":"U","SITE":"AFETR","ECCENTRICITY":"0.00013990","COUNTRY_CODE":"US","OBJECT_TYPE":"PAYLOAD","REF_FRAME":"TEME","FILE":"3780324","REV_AT_EPOCH":"11092","GP_ID":"224821524","ELEMENT_SET_NO":"999","RA_OF_ASC_NODE":"52.8010","DECAY_DATE":null,"MEAN_MOTION_DDOT":"0.0000000000000","ARG_OF_PERICENTER":"92.5052","INCLINATION":"53.0534","TLE_LINE1":"1 47586U 21009AQ  23039.49871839  .00003171  00000-0  23158-3 0  9992"},{"OBJECT_TYPE":"PAYLOAD","REF_FRAME":"TEME","COUNTRY_CODE":"US","RA_OF_ASC_NODE":"23.4162","FILE":"3780324","REV_AT_EPOCH":"11132","GP_ID":"224821774","ELEMENT_SET_NO":"999","INCLINATION":"53.0534","TLE_LINE1":"1 47587U 21009AR  23039.36141893  .00001836  00000-0  14210-3 0  9994","DECAY_DATE":null,"MEAN_MOTION_DDOT":"0.0000000000000","ARG_OF_PERICENTER":"97.6725","MEAN_ANOMALY":"262.4433","EPHEMERIS_TYPE":"0","EPOCH":"2023-02-08T08:40:26.595552","BSTAR":"0.00014210000000","SEMIMAJOR_AXIS":"6925.319","OBJECT_ID":"2021-009AR","CENTER_NAME":"EARTH","TIME_SYSTEM":"UTC","MEAN_MOTION":"15.06409614","RCS_SIZE":"LARGE","APOAPSIS":"548.216","MEAN_ELEMENT_THEORY":"SGP4","TLE_LINE2":"2 47587  53.0534  23.4162 0001490  97.6725 262.4433 15.06409614111329","OBJECT_NAME":"STARLINK-1991","MEAN_MOTION_DOT":"0.00001836","CLASSIFICATION_TYPE":"U","PERIAPSIS":"546.152","ECCENTRICITY":"0.00014900","SITE":"AFETR","LAUNCH_DATE":"2021-02-04","NORAD_CAT_ID":"47587","PERIOD":"95.592"},{"APOAPSIS":"548.224","MEAN_ELEMENT_THEORY":"SGP4","RCS_SIZE":"LARGE","TLE_LINE2":"2 47588  53.0554  33.4481 0001504  97.8177 262.2983 15.06410059111183","CENTER_NAME":"EARTH","SEMIMAJOR_AXIS":"6925.318","OBJECT_ID":"2021-009AS","BSTAR":"0.00017592000000","MEAN_MOTION":"15.06410059","TIME_SYSTEM":"UTC","EPHEMERIS_TYPE":"0","EPOCH":"2023-02-08T08:28:30.149472","MEAN_ANOMALY":"262.2983","LAUNCH_DATE":"2021-02-04","PERIOD":"95.592","NORAD_CAT_ID":"47588","PERIAPSIS":"546.141","CLASSIFICATION_TYPE":"U","SITE":"AFETR","ECCENTRICITY":"0.00015040","MEAN_MOTION_DOT":"0.00002340","OBJECT_NAME":"STARLINK-1993","GP_ID":"224822526","REV_AT_EPOCH":"11118","FILE":"3780324","ELEMENT_SET_NO":"999","RA_OF_ASC_NODE":"33.4481","COUNTRY_CODE":"US","REF_FRAME":"TEME","OBJECT_TYPE":"PAYLOAD","DECAY_DATE":null,"MEAN_MOTION_DDOT":"0.0000000000000","ARG_OF_PERICENTER":"97.8177","TLE_LINE1":"1 47588U 21009AS  23039.35312673  .00002340  00000-0  17592-3 0  9997","INCLINATION":"53.0554"},{"DECAY_DATE":null,"MEAN_MOTION_DDOT":"0.0000000000000","ARG_OF_PERICENTER":"97.9633","INCLINATION":"53.0524","TLE_LINE1":"1 47589U 21009AT  23039.37155545  .00017028  00000-0  11586-2 0  9998","COUNTRY_CODE":"US","OBJECT_TYPE":"PAYLOAD","REF_FRAME":"TEME","FILE":"3780532","REV_AT_EPOCH":"11178","GP_ID":"224831890","ELEMENT_SET_NO":"999","RA_OF_ASC_NODE":"33.3741","MEAN_MOTION_DOT":"0.00017028","OBJECT_NAME":"STARLINK-1994","LAUNCH_DATE":"2021-02-04","NORAD_CAT_ID":"47589","PERIOD":"95.591","PERIAPSIS":"546.220","CLASSIFICATION_TYPE":"U","ECCENTRICITY":"0.00013350","SITE":"AFETR","EPHEMERIS_TYPE":"0","EPOCH":"2023-02-08T08:55:02.390880","MEAN_ANOMALY":"262.1507","RCS_SIZE":"LARGE","MEAN_ELEMENT_THEORY":"SGP4","APOAPSIS":"548.070","TLE_LINE2":"2 47589  53.0524  33.3741 0001335  97.9633 262.1507 15.06422371111786","BSTAR":"0.00115860000000","SEMIMAJOR_AXIS":"6925.280","CENTER_NAME":"EARTH","OBJECT_ID":"2021-009AT","TIME_SYSTEM":"UTC","MEAN_MOTION":"15.06422371"},{"LAUNCH_DATE":"2021-02-04","NORAD_CAT_ID":"47590","PERIOD":"95.592","CLASSIFICATION_TYPE":"U","PERIAPSIS":"546.066","SITE":"AFETR","ECCENTRICITY":"0.00016370","MEAN_MOTION_DOT":"-0.00000918","OBJECT_NAME":"STARLINK-1995","RCS_SIZE":"LARGE","MEAN_ELEMENT_THEORY":"SGP4","APOAPSIS":"548.333","TLE_LINE2":"2 47590  53.0544  53.7152 0001637 112.4789 247.6374 15.06404670110895","BSTAR":"-0.00004274400000","OBJECT_ID":"2021-009AU","SEMIMAJOR_AXIS":"6925.334","CENTER_NAME":"EARTH","TIME_SYSTEM":"UTC","MEAN_MOTION":"15.06404670","EPHEMERIS_TYPE":"0","EPOCH":"2023-02-08T07:06:14.349888","MEAN_ANOMALY":"247.6374","DECAY_DATE":null,"MEAN_MOTION_DDOT":"0.0000000000000","ARG_OF_PERICENTER":"112.4789","INCLINATION":"53.0544","TLE_LINE1":"1 47590U 21009AU  23039.29599942 -.00000918  00000-0 -42744-4 0  9998","FILE":"3780324","REV_AT_EPOCH":"11089","GP_ID":"224821025","ELEMENT_SET_NO":"999","RA_OF_ASC_NODE":"53.7152","COUNTRY_CODE":"US","OBJECT_TYPE":"PAYLOAD","REF_FRAME":"TEME"},{"COUNTRY_CODE":"US","REF_FRAME":"TEME","OBJECT_TYPE":"PAYLOAD","ELEMENT_SET_NO":"999","GP_ID":"224821275","FILE":"3780324","REV_AT_EPOCH":"11120","RA_OF_ASC_NODE":"32.7931","MEAN_MOTION_DDOT":"0.0000000000000","ARG_OF_PERICENTER":"91.8804","DECAY_DATE":null,"TLE_LINE1":"1 47591U 21009AV  23039.50056876  .00000883  00000-0  78157-4 0  9993","INCLINATION":"53.0545","EPOCH":"2023-02-08T12:00:49.140864","EPHEMERIS_TYPE":"0","MEAN_ANOMALY":"268.2320","TLE_LINE2":"2 47591  53.0545  32.7931 0001181  91.8804 268.2320 15.06402615111204","MEAN_ELEMENT_THEORY":"SGP4","APOAPSIS":"548.023","RCS_SIZE":"LARGE","MEAN_MOTION":"15.06402615","TIME_SYSTEM":"UTC","SEMIMAJOR_AXIS":"6925.341","CENTER_NAME":"EARTH","OBJECT_ID":"2021-009AV","BSTAR":"0.00007815700000","MEAN_MOTION_DOT":"0.00000883","OBJECT_NAME":"STARLINK-1996","PERIOD":"95.592","NORAD_CAT_ID":"47591","LAUNCH_DATE":"2021-02-04","SITE":"AFETR","ECCENTRICITY":"0.00011810","CLASSIFICATION_TYPE":"U","PERIAPSIS":"546.388"},{"EPOCH":"2023-02-08T17:32:33.500256","EPHEMERIS_TYPE":"0","MEAN_ANOMALY":"275.6945","TLE_LINE2":"2 47592  53.0527  51.7507 0001757  84.4244 275.6945 15.06385164110955","APOAPSIS":"548.476","MEAN_ELEMENT_THEORY":"SGP4","RCS_SIZE":"LARGE","MEAN_MOTION":"15.06385164","TIME_SYSTEM":"UTC","SEMIMAJOR_AXIS":"6925.394","CENTER_NAME":"EARTH","OBJECT_ID":"2021-009AW","BSTAR":"-0.00006820300000","MEAN_MOTION_DOT":"-0.00001297","OBJECT_NAME":"STARLINK-1997","PERIOD":"95.593","NORAD_CAT_ID":"47592","LAUNCH_DATE":"2021-02-04","ECCENTRICITY":"0.00017570","SITE":"AFETR","CLASSIFICATION_TYPE":"U","PERIAPSIS":"546.042","COUNTRY_CODE":"US","REF_FRAME":"TEME","OBJECT_TYPE":"PAYLOAD","ELEMENT_SET_NO":"999","GP_ID":"224858591","REV_AT_EPOCH":"11095","FILE":"3780893","RA_OF_ASC_NODE":"51.7507","MEAN_MOTION_DDOT":"0.0000000000000","ARG_OF_PERICENTER":"84.4244","DECAY_DATE":null,"TLE_LINE1":"1 47592U 21009AW  23039.73094329 -.00001297  00000-0 -68203-4 0  9997","INCLINATION":"53.0527"},{"LAUNCH_DATE":"2021-02-04","NORAD_CAT_ID":"47593","PERIOD":"95.591","CLASSIFICATION_TYPE":"U","PERIAPSIS":"546.278","ECCENTRICITY":"0.00012690","SITE":"AFETR","MEAN_MOTION_DOT":"0.00006160","OBJECT_NAME":"STARLINK-1998","RCS_SIZE":"LARGE","APOAPSIS":"548.035","MEAN_ELEMENT_THEORY":"SGP4","TLE_LINE2":"2 47593  53.0547  52.7761 0001269  92.9113 267.2021 15.06418622111520","BSTAR":"0.00043188000000","CENTER_NAME":"EARTH","SEMIMAJOR_AXIS":"6925.291","OBJECT_ID":"2021-009AX","TIME_SYSTEM":"UTC","MEAN_MOTION":"15.06418622","EPHEMERIS_TYPE":"0","EPOCH":"2023-02-08T12:03:27.779040","MEAN_ANOMALY":"267.2021","DECAY_DATE":null,"MEAN_MOTION_DDOT":"0.0000000000000","ARG_OF_PERICENTER":"92.9113","INCLINATION":"53.0547","TLE_LINE1":"1 47593U 21009AX  23039.50240485  .00006160  00000-0  43188-3 0  9995","FILE":"3780532","REV_AT_EPOCH":"11152","GP_ID":"224831958","ELEMENT_SET_NO":"999","RA_OF_ASC_NODE":"52.7761","COUNTRY_CODE":"US","OBJECT_TYPE":"PAYLOAD","REF_FRAME":"TEME"}];
